GLOBALSTAR M094         
1 39074U 13005C   25160.57495304 -.00000069  00000+0  19559-3 0  9990
2 39074  51.9937 205.2935 0000310 213.7082 146.3765 12.62262701571411
GLOBALSTAR M096         
1 39075U 13005D   25160.66731831 -.00000069  00000+0  19272-3 0  9991
2 39075  52.0072 253.5209 0000564 163.4822 196.6063 12.62265096570348
GLOBALSTAR M078         
1 39076U 13005E   25160.87838176 -.00000189  00000+0 -47736-3 0  9995
2 39076  51.9895 337.3974 0001390 133.7604 226.3378 12.62260069568999
GLOBALSTAR M095         
1 39077U 13005F   25160.82555331 -.00000094  00000+0  55872-4 0  9995
2 39077  51.9817 334.7579 0000918 133.5658 226.5284 12.62263575568845
GLOBALSTAR M087         
1 52888U 22064A   25160.85624448 -.00000118  00000+0 -78525-4 0  9992
2 52888  51.9982 116.1167 0000268  48.4233 311.6656 12.62263580144114
